STARLINK-30617          
1 58104U 23161H   25365.60928431  .00001285  00000+0  55517-4 0  9997
2 58104  53.1610 121.8811 0001020  88.0304 272.0813 15.30190622123990
STARLINK-30616          
1 58105U 23161J   25365.56547567 -.00000066  00000+0  99090-5 0  9992
2 58105  53.1601 108.8586 0001271  91.1589 268.9557 15.30180099124169
STARLINK-30612          
1 58106U 23161K   25365.57285963 -.00000054  00000+0  10307-4 0  9993
2 58106  53.1608 108.9165 0001231  78.9117 281.2022 15.30189788124177
STARLINK-30421          
1 58107U 23161L   25365.57812802  .00000604  00000+0  32517-4 0  9999
2 58107  53.1606 108.9174 0001155  62.4435 297.6683 15.30196066124173
STARLINK-30611          
1 58108U 23161M   25365.59923000  .00000512  00000+0  29421-4 0  9993
2 58108  53.1602 109.0281 0000898 123.1494 236.9593 15.30192969124178
STARLINK-30606          
1 58109U 23161N   25365.64503151  .00008085  00000+0  28437-3 0  9999
2 58109  53.1600 121.5960 0002142  33.8381 326.2756 15.30249934124007
STARLINK-30596          
1 58110U 23161P   25365.62186653  .00000738  00000+0  37059-4 0  9991
2 58110  53.1609 121.4563 0001026 108.2034 251.9079 15.30191826124006
STARLINK-30595          
1 58111U 23161Q   25365.52711416  .00002016  00000+0  80175-4 0  9990
2 58111  53.1592 122.2804 0001019 105.2761 254.8353 15.30194926123988
STARLINK-30593          
1 58112U 23161R   25365.58926107  .00001304  00000+0  56154-4 0  9991
2 58112  53.1602 121.9536 0001112 116.4874 243.6241 15.30191709123991
STARLINK-30353          
1 58113U 23161S   25365.59877581 -.00001830  00000+0 -49727-4 0  9998
2 58113  53.1596 122.0168 0001031 100.1931 259.9187 15.30174582123990
STARLINK-30572          
1 58114U 23161T   25365.65141442  .00000663  00000+0  34526-4 0  9998
2 58114  53.1595 121.6294 0000974 121.5878 238.5218 15.30188405124007
STARLINK-30580          
1 58115U 23161U   25365.62503384 -.00000389  00000+0 -10272-5 0  9993
2 58115  53.1608 121.4516 0001074  83.8851 276.2272 15.30188391124004
STARLINK-30493          
1 58116U 23161V   25365.66090994  .00000298  00000+0  22194-4 0  9998
2 58116  53.1598 121.6930 0000959 112.6397 247.4706 15.30192240124002
STARLINK-30601          
1 58117U 23161W   25365.60191416  .00004587  00000+0  16686-3 0  9997
2 58117  53.1604 122.0321 0001346 113.2322 246.8821 15.30211770123994
STARLINK-30795          
1 58118U 23162A   25365.44566952 -.00001712  00000+0 -11177-3 0  9991
2 58118  43.0038 143.9740 0001584 273.5513  86.5148 15.02509603122036
STARLINK-30765          
1 58119U 23162B   25365.39690573  .00001579  00000+0  13192-3 0  9991
2 58119  43.0040 144.4518 0001375 270.1279  89.9406 15.02548174122028
STARLINK-30768          
1 58120U 23162C   25365.44233228 -.00002737  00000+0 -18765-3 0  9999
2 58120  43.0006 143.9491 0000871 280.3706  79.7038 15.02528370122039
STARLINK-30799          
1 58121U 23162D   25365.66172456 -.00001241  00000+0 -76830-4 0  9996
2 58121  43.0024 142.9946 0000777 253.1922 106.8835 15.02527714122068
STARLINK-30759          
1 58122U 23162E   25364.37649610  .00047684  00000+0  35388-2 0  9995
2 58122  43.0027 149.7103 0001351 200.1501 159.9288 15.02345269121889
STARLINK-30781          
1 58123U 23162F   25365.43897878  .00001053  00000+0  93005-4 0  9997
2 58123  43.0040 143.9209 0001407 266.1575  93.9106 15.02535856122030
STARLINK-30754          
1 58124U 23162G   25365.65839201  .00002179  00000+0  17631-3 0  9998
2 58124  43.0028 142.9690 0001181 285.8697  74.2015 15.02546798116279
STARLINK-30766          
1 58125U 23162H   25365.43566222  .00001437  00000+0  12145-3 0  9996
2 58125  43.0038 143.8955 0001497 269.3801  90.6870 15.02535109122035
STARLINK-30767          
1 58126U 23162J   25365.69819789  .00005389  00000+0  41331-3 0  9993
2 58126  43.0033 142.4249 0000674 223.2477 136.8312 15.02568298122079
STARLINK-30790          
1 58127U 23162K   25365.68684147  .00061286  00000+0  40075-2 0  9992
2 58127  43.0007 141.4964 0005674 308.7291  51.3045 15.06956138122085
STARLINK-30787          
1 58128U 23162L   25365.69157219  .00001261  00000+0  10840-3 0  9994
2 58128  43.0031 142.3751 0001448 274.2286  85.8390 15.02536407122076
STARLINK-30756          
1 58129U 23162M   25365.78801461  .00002075  00000+0  16865-3 0  9997
2 58129  43.0055 142.2190 0001724 269.6284  90.4361 15.02531744122082
STARLINK-30783          
1 58130U 23162N   25365.42228895  .00005921  00000+0  45263-3 0  9991
2 58130  43.0021 143.7923 0001618 293.2829  66.7843 15.02568646122034
STARLINK-30757          
1 58131U 23162P   25365.68490273  .00002075  00000+0  16861-3 0  9990
2 58131  43.0061 142.3258 0001226 275.0823  84.9879 15.02546697122079
STARLINK-30770          
1 58132U 23162Q   25365.65175713 -.00001860  00000+0 -12272-3 0  9992
2 58132  43.0036 142.9105 0001540 277.3583  82.7084 15.02519450122066
STARLINK-30758          
1 58133U 23162R   25365.68380252  .00000510  00000+0  52805-4 0  9998
2 58133  43.0035 142.3152 0001529 272.4706  87.5961 15.02535387122077
STARLINK-30761          
1 58134U 23162S   25365.44896776  .00000677  00000+0  65212-4 0  9996
2 58134  43.0020 143.9777 0001160 271.7527  88.3182 15.02538334122031
STARLINK-30772          
1 58135U 23162T   25365.68169857  .00000593  00000+0  58985-4 0  9992
2 58135  43.0034 143.1437 0001293 264.5226  95.5469 15.02535149122067
STARLINK-30776          
1 58136U 23162U   25365.67281143  .00001026  00000+0  91017-4 0  9990
2 58136  43.0004 143.0535 0001531 266.2897  93.7770 15.02540758122068
STARLINK-30782          
1 58137U 23162V   25365.67504065  .00001007  00000+0  89607-4 0  9993
2 58137  43.0046 143.0954 0001367 265.4544  94.6142 15.02534923122067
STARLINK-30769          
1 58138U 23162W   25365.66838075  .00000657  00000+0  63727-4 0  9999
2 58138  43.0034 143.0460 0001340 268.1581  91.9108 15.02534746122064
STARLINK-30775          
1 58139U 23162X   25365.67170948 -.00000368  00000+0 -12141-4 0  9994
2 58139  43.0029 143.0693 0001270 266.2857  93.7840 15.02547718122060
STARLINK-30780          
1 58140U 23162Y   25365.66505257 -.00000031  00000+0  12781-4 0  9996
2 58140  43.0019 143.0174 0001153 267.3453  92.7257 15.02535143122069
YAOGAN-39 04A           
1 58141U 23163A   26001.01378814  .00023699  00000+0  97052-3 0  9999
2 58141  35.0012 316.0795 0007907 291.3929  68.5942 15.23373033122077
YAOGAN-39 04B           
1 58143U 23163C   26001.19088269  .00012899  00000+0  62728-3 0  9994
2 58143  34.9958 329.8777 0011909 183.3340 176.7295 15.17559724121935
YAOGAN-39 04C           
1 58145U 23163E   26001.18804409  .00012336  00000+0  60030-3 0  9997
2 58145  34.9929 329.7451 0006000 258.9800 101.0238 15.17590846121948
COSMOS 2570             
1 58148U 23165A   25365.90750225  .00000011  00000+0  62221-4 0  9992
2 58148  67.1491 335.9618 0005177 269.8594  90.1897 13.96671918111271
STARLINK-30802          
1 58150U 23166A   25365.88502804  .00000985  00000+0  45403-4 0  9994
2 58150  53.1603 174.8606 0001216  76.5418 283.5718 15.30193023122794
STARLINK-30834          
1 58151U 23166B   25365.88921513  .00046842  00000+0  15832-2 0  9990
2 58151  53.1572 174.6826 0000954  54.5599 305.5490 15.30209795122792
STARLINK-30833          
1 58152U 23166C   25365.88292591 -.00000981  00000+0 -21021-4 0  9993
2 58152  53.1592 174.8462 0001215  75.6263 284.4873 15.30176835122794
STARLINK-30831          
1 58153U 23166D   25365.80072183  .00000823  00000+0  39924-4 0  9993
2 58153  53.1605 175.0634 0001207  73.0422 287.0711 15.30189275122785
STARLINK-30797          
1 58154U 23166E   25365.76175192  .00000680  00000+0  35073-4 0  9995
2 58154  53.1605 175.3027 0001117  85.3616 274.7512 15.30194812122624
STARLINK-30804          
1 58155U 23166F   25365.87662194  .00001157  00000+0  51255-4 0  9991
2 58155  53.1586 174.8192 0000932  94.0628 266.0480 15.30137128122797
STARLINK-30784          
1 58156U 23166G   25365.88608132 -.00000723  00000+0 -12282-4 0  9992
2 58156  53.1579 174.8685 0000878  70.4825 289.6270 15.30200347122649
STARLINK-30803          
1 58157U 23166H   25365.86286949 -.00000488  00000+0 -43446-5 0  9994
2 58157  53.1604 174.7226 0001054  93.3497 266.7624 15.30185944122649
STARLINK-30829          
1 58158U 23166J   25365.87975366  .00001072  00000+0  48316-4 0  9992
2 58158  53.1599 174.8391 0001267  79.2351 280.8792 15.30189014122796
STARLINK-30788          
1 58159U 23166K   25365.87342803 -.00001422  00000+0 -35903-4 0  9996
2 58159  53.1598 174.8036 0001443  83.0437 277.0728 15.30179498122642
STARLINK-30779          
1 58160U 23166L   25365.73857196  .00000604  00000+0  32546-4 0  9998
2 58160  53.1616 175.3844 0001516  89.3627 270.7547 15.30191517122778
STARLINK-30773          
1 58161U 23166M   25365.85336758  .00003610  00000+0  13402-3 0  9997
2 58161  53.1578 174.6617 0000926  98.7326 261.3780 15.30184169122792
STARLINK-30816          
1 58162U 23166N   25365.85020706  .00000739  00000+0  37092-4 0  9992
2 58162  53.1595 174.6590 0001002  98.7842 261.3272 15.30190483122793
STARLINK-30763          
1 58163U 23166P   25365.72644064  .00001666  00000+0  68384-4 0  9996
2 58163  53.1605 162.7242 0001044  80.4347 279.6771 15.30192199122941
STARLINK-30815          
1 58164U 23166Q   25365.85970897  .00000601  00000+0  32427-4 0  9994
2 58164  53.1611 174.7223 0000979  86.0934 274.0178 15.30179907122796
STARLINK-30814          
1 58165U 23166R   25365.89546861  .00000888  00000+0  42090-4 0  9993
2 58165  53.1609 174.2327 0000993  82.6239 277.4875 15.30195348122800
STARLINK-30789          
1 58166U 23166S   25365.85653976  .00000331  00000+0  23311-4 0  9994
2 58166  53.1599 174.7025 0000974  86.7533 273.3579 15.30188550122791
STARLINK-30811          
1 58167U 23166T   25365.90180222  .00001512  00000+0  63176-4 0  9995
2 58167  53.1586 174.2714 0001042  87.4441 272.6679 15.30194107122654
